NORAD_CAT_ID,OBJECT_NAME,OBJECT_TYPE,EPOCH,MEAN_MOTION,ECCENTRICITY,INCLINATION,RA_OF_ASC_NODE,ARG_OF_PERICENTER,MEAN_ANOMALY,BSTAR,MEAN_MOTION_DOT,MEAN_MOTION_DDOT,TLE_LINE0,TLE_LINE1,TLE_LINE2,SEMIMAJOR_AXIS,PERIOD,APOGEE,PERIGEE,DECAYED
51894.0,STARLINK-3595,PAYLOAD,2023-05-12 17:16:59,15.08837618,0.0001045,53.2177,311.8101,87.9433,272.1679,3.9239e-05,3.37e-06,0.0,0 STARLINK-3595,1 51894U 22022AU  23132.72013408  .00000337  00000-0  39239-4 0  9994,2 51894  53.2177 311.8101 0001045  87.9433 272.1679 15.08837618 67513,6917.888,95.438,540.476,539.03,0.0
51894.0,STARLINK-3595,PAYLOAD,2023-05-13 04:24:40,15.08845036,9.88e-05,53.2174,309.7291,83.6593,276.4512,8.8571e-05,1.122e-05,0.0,0 STARLINK-3595,1 51894U 22022AU  23133.18380786  .00001122  00000-0  88571-4 0  9997,2 51894  53.2174 309.7291 0000988  83.6593 276.4512 15.08845036 67584,6917.865,95.437,540.413,539.047,0.0
51894.0,STARLINK-3595,PAYLOAD,2023-05-13 18:43:09,15.08840891,9.87e-05,53.2165,307.0552,98.8855,261.2249,3.2107e-05,2.23e-06,0.0,0 STARLINK-3595,1 51894U 22022AU  23133.77997234  .00000223  00000-0  32107-4 0  9999,2 51894  53.2165 307.0552 0000987  98.8855 261.2249 15.08840891 67676,6917.878,95.437,540.425,539.06,0.0
51894.0,STARLINK-3595,PAYLOAD,2023-05-14 04:15:28,15.08837463,9.72e-05,53.2165,305.2713,98.7205,261.3897,5.6173e-05,6.06e-06,0.0,0 STARLINK-3595,1 51894U 22022AU  23134.17741469  .00000606  00000-0  56173-4 0  9995,2 51894  53.2165 305.2713 0000972  98.7205 261.3897 15.08837463 67735,6917.888,95.438,540.426,539.081,0.0
51894.0,STARLINK-3595,PAYLOAD,2023-05-14 20:09:21,15.08751288,0.0001532,53.2163,302.2982,96.795,263.3217,0.0012992,0.00020399,0.0,0 STARLINK-3595,1 51894U 22022AU  23134.83983363  .00020399  00000-0  12992-2 0  9999,2 51894  53.2163 302.2982 0001532  96.7950 263.3217 15.08751288 67835,6918.152,95.443,541.076,538.957,0.0
51894.0,STARLINK-3595,PAYLOAD,2023-05-15 04:06:15,15.08840117,9.34e-05,53.217,300.8103,99.6842,260.4256,1.7746e-05,-5e-08,0.0,0 STARLINK-3595,1 51894U 22022AU  23135.17101566 -.00000005  00000-0  17746-4 0  9991,2 51894  53.2170 300.8103 0000934  99.6842 260.4256 15.08840117 67885,6917.88,95.438,540.391,539.099,0.0
51894.0,STARLINK-3595,PAYLOAD,2023-05-15 16:49:21,15.08834997,0.0001078,53.2175,298.4308,88.1818,271.9298,3.8534e-05,3.25e-06,0.0,0 STARLINK-3595,1 51894U 22022AU  23135.70094021  .00000325  00000-0  38534-4 0  9999,2 51894  53.2175 298.4308 0001078  88.1818 271.9298 15.08834997 67966,6917.896,95.438,540.506,539.015,0.0
51894.0,STARLINK-3595,PAYLOAD,2023-05-16 16:40:08,15.08829992,0.0001268,53.2177,293.9693,89.0926,271.0212,0.00021974,3.21e-05,0.0,0 STARLINK-3595,1 51894U 22022AU  23136.69454112  .00003210  00000-0  21974-3 0  9994,2 51894  53.2177 293.9693 0001268  89.0926 271.0212 15.08829992 68110,6917.911,95.438,540.653,538.899,0.0
51894.0,STARLINK-3595,PAYLOAD,2023-05-17 03:47:50,15.08840064,0.0001303,53.2192,291.8892,83.1205,276.9936,3.0589e-05,1.99e-06,0.0,0 STARLINK-3595,1 51894U 22022AU  23137.15821858  .00000199  00000-0  30589-4 0  9997,2 51894  53.2192 291.8892 0001303  83.1205 276.9936 15.08840064 68187,6917.88,95.438,540.647,538.844,0.0
51894.0,STARLINK-3595,PAYLOAD,2023-05-17 16:30:55,15.08830279,0.0001057,53.2167,289.5107,90.2502,269.8611,0.00016396,2.322e-05,0.0,0 STARLINK-3595,1 51894U 22022AU  23137.68814140  .00002322  00000-0  16396-3 0  9990,2 51894  53.2167 289.5107 0001057  90.2502 269.8611 15.08830279 68264,6917.91,95.438,540.506,539.044,0.0
51894.0,STARLINK-3595,PAYLOAD,2023-05-18 13:10:55,15.08839859,0.0001122,53.2175,285.6436,95.7202,264.3918,2.0984e-05,4.6e-07,0.0,0 STARLINK-3595,1 51894U 22022AU  23138.54925820  .00000046  00000-0  20984-4 0  9994,2 51894  53.2175 285.6436 0001122  95.7202 264.3918 15.08839859 68392,6917.881,95.438,540.522,538.97,0.0
51894.0,STARLINK-3595,PAYLOAD,2023-05-18 19:32:28,15.08842864,0.0001159,53.2175,284.4537,98.2391,261.8732,4.9165e-05,4.95e-06,0.0,0 STARLINK-3595,1 51894U 22022AU  23138.81421489  .00000495  00000-0  49165-4 0  9996,2 51894  53.2175 284.4537 0001159  98.2391 261.8732 15.08842864 68439,6917.872,95.437,540.538,538.935,0.0
51894.0,STARLINK-3595,PAYLOAD,2023-05-19 16:12:28,15.08841986,0.0001083,53.2166,280.5889,92.0135,268.0981,7.6748e-05,9.34e-06,0.0,0 STARLINK-3595,1 51894U 22022AU  23139.67533399  .00000934  00000-0  76748-4 0  9990,2 51894  53.2166 280.5889 0001083  92.0135 268.0981 15.08841986 68563,6917.874,95.437,540.489,538.99,0.0
51894.0,STARLINK-3595,PAYLOAD,2023-05-20 16:03:14,15.08856631,0.0001019,53.2167,276.1272,95.6221,264.4887,0.00016293,2.307e-05,0.0,0 STARLINK-3595,1 51894U 22022AU  23140.66892288  .00002307  00000-0  16293-3 0  9990,2 51894  53.2167 276.1272 0001019  95.6221 264.4887 15.08856631 68710,6917.83,95.437,540.399,538.99,0.0
51894.0,STARLINK-3595,PAYLOAD,2023-05-20 19:14:01,15.08858442,9.74e-05,53.2166,275.532,93.1766,266.9338,0.00016038,2.267e-05,0.0,0 STARLINK-3595,1 51894U 22022AU  23140.80140052  .00002267  00000-0  16038-3 0  9993,2 51894  53.2166 275.5320 0000974  93.1766 266.9338 15.08858442 68734,6917.824,95.436,540.363,539.015,0.0
51894.0,STARLINK-3595,PAYLOAD,2023-05-21 01:35:35,15.08829576,0.0001189,53.2171,274.3443,79.2128,280.8998,-5.8146e-05,-1.213e-05,0.0,0 STARLINK-3595,1 51894U 22022AU  23141.06638396 -.00001213  00000-0 -58146-4 0  9994,2 51894  53.2171 274.3443 0001189  79.2128 280.8998 15.08829576 68776,6917.912,95.438,540.6,538.955,0.0
51894.0,STARLINK-3595,PAYLOAD,2023-05-21 17:29:29,15.08813375,0.0001011,53.2188,271.3725,83.5768,276.5339,-0.00018406,-3.214e-05,0.0,0 STARLINK-3595,1 51894U 22022AU  23141.72880832 -.00003214  00000-0 -18406-3 0  9998,2 51894  53.2188 271.3725 0001011  83.5768 276.5339 15.08813375 68878,6917.962,95.439,540.526,539.127,0.0
51894.0,STARLINK-3595,PAYLOAD,2023-05-22 01:26:24,15.08820033,0.0001094,53.219,269.8901,100.1846,259.9269,-8.558e-05,-1.649e-05,0.0,0 STARLINK-3595,1 51894U 22022AU  23142.06000592 -.00001649  00000-0 -85580-4 0  9991,2 51894  53.2190 269.8901 0001094 100.1846 259.9269 15.08820033 68925,6917.941,95.439,540.563,539.05,0.0
51894.0,STARLINK-3595,PAYLOAD,2023-05-22 07:47:56,15.08831514,6.88e-05,53.2159,268.6923,92.9175,267.1896,-0.00012433,-2.265e-05,0.0,0 STARLINK-3595,1 51894U 22022AU  23142.32496262 -.00002265  00000-0 -12433-3 0  9994,2 51894  53.2159 268.6923 0000688  92.9175 267.1896 15.08831514 68969,6917.906,95.438,540.247,539.295,0.0
51894.0,STARLINK-3595,PAYLOAD,2023-05-22 17:20:14,15.08850039,0.0001058,53.2178,266.9099,84.097,276.0143,1.3286e-06,-2.67e-06,0.0,0 STARLINK-3595,1 51894U 22022AU  23142.72238882 -.00000267  00000-0  13286-5 0  9998,2 51894  53.2178 266.9099 0001058  84.0970 276.0143 15.08850039 69027,6917.85,95.437,540.447,538.983,0.0
51894.0,STARLINK-3595,PAYLOAD,2023-05-23 07:38:41,15.08864916,0.0001304,53.2178,264.2339,74.0995,286.014,-0.0001211,-2.216e-05,0.0,0 STARLINK-3595,1 51894U 22022AU  23143.31853922 -.00002216  00000-0 -12110-3 0  9992,2 51894  53.2178 264.2339 0001304  74.0995 286.0140 15.08864916 69112,6917.804,95.436,540.571,538.767,0.0
51894.0,STARLINK-3595,PAYLOAD,2023-05-23 15:35:38,15.0885799,0.000103,53.2164,262.7473,76.2549,283.8557,0.00064349,9.973e-05,0.0,0 STARLINK-3595,1 51894U 22022AU  23143.64975231  .00009973  00000-0  64349-3 0  9992,2 51894  53.2164 262.7473 0001030  76.2549 283.8557 15.08857990 69160,6917.825,95.436,540.403,538.978,0.0
51894.0,STARLINK-3595,PAYLOAD,2023-05-24 01:07:57,15.08856598,0.0001155,53.2166,260.9654,69.8166,290.295,0.00030196,4.523e-05,0.0,0 STARLINK-3595,1 51894U 22022AU  23144.04718938  .00004523  00000-0  30196-3 0  9995,2 51894  53.2166 260.9654 0001155  69.8166 290.2950 15.08856598 69223,6917.83,95.437,540.494,538.896,0.0
51894.0,STARLINK-3595,PAYLOAD,2023-05-24 13:51:02,15.08849248,0.0001079,53.217,258.5843,81.5625,278.549,4.2711e-05,3.92e-06,0.0,0 STARLINK-3595,1 51894U 22022AU  23144.57710815  .00000392  00000-0  42711-4 0  9996,2 51894  53.2170 258.5843 0001079  81.5625 278.5490 15.08849248 69308,6917.852,95.437,540.464,538.971,0.0
51894.0,STARLINK-3595,PAYLOAD,2023-05-25 13:41:48,15.08849104,0.0001245,53.2174,254.1252,76.2508,283.8623,-4.1531e-06,-3.54e-06,0.0,0 STARLINK-3595,1 51894U 22022AU  23145.57070498 -.00000354  00000-0 -41531-5 0  9993,2 51894  53.2174 254.1252 0001245  76.2508 283.8623 15.08849104 69458,6917.853,95.437,540.579,538.856,0.0
51894.0,STARLINK-3595,PAYLOAD,2023-05-26 10:21:50,15.0880971,8.98e-05,53.217,250.2581,102.7502,257.3591,0.00053346,8.205e-05,0.0,0 STARLINK-3595,1 51894U 22022AU  23146.43183782  .00008205  00000-0  53346-3 0  9996,2 51894  53.2170 250.2581 0000898 102.7502 257.3591 15.08809710 69581,6917.973,95.439,540.459,539.217,0.0
51894.0,STARLINK-3595,PAYLOAD,2023-05-26 13:32:36,15.08838314,9.85e-05,53.217,249.6634,94.932,265.1784,3.9566e-05,3.42e-06,0.0,0 STARLINK-3595,1 51894U 22022AU  23146.56430717  .00000342  00000-0  39566-4 0  9996,2 51894  53.2170 249.6634 0000985  94.9320 265.1784 15.08838314 69605,6917.886,95.438,540.432,539.069,0.0
51894.0,STARLINK-3595,PAYLOAD,2023-05-26 16:43:22,15.08835442,0.0001192,53.2168,249.0726,55.3082,304.8022,-2.0854e-05,-6.2e-06,0.0,0 STARLINK-3595,1 51894U 22022AU  23146.69679209 -.00000620  00000-0 -20854-4 0  9992,2 51894  53.2168 249.0726 0001192  55.3082 304.8022 15.08835442 69622,6917.894,95.438,540.584,538.935,0.0
51894.0,STARLINK-3595,PAYLOAD,2023-05-27 10:12:38,15.08822108,0.0001048,53.2167,245.7969,103.1297,256.9812,-9.1875e-05,-1.749e-05,0.0,0 STARLINK-3595,1 51894U 22022AU  23147.42544702 -.00001749  00000-0 -91875-4 0  9997,2 51894  53.2167 245.7969 0001048 103.1297 256.9812 15.08822108 69734,6917.935,95.439,540.525,539.075,0.0
51894.0,STARLINK-3595,PAYLOAD,2023-05-27 16:34:10,15.08827437,8.96e-05,53.2168,244.6077,100.2439,259.8654,-4.9177e-05,-1.07e-05,0.0,0 STARLINK-3595,1 51894U 22022AU  23147.69040486 -.00001070  00000-0 -49177-4 0  9991,2 51894  53.2168 244.6077 0000896 100.2439 259.8654 15.08827437 69779,6917.919,95.438,540.404,539.164,0.0
